[{"OBJECT_NAME":"QIANFAN-78","OBJECT_ID":"2025-046F","EPOCH":"2026-03-09T22:25:54.211008","MEAN_MOTION":13.51000147,"ECCENTRICITY":0.00132851,"INCLINATION":88.9751,"RA_OF_ASC_NODE":310.9838,"ARG_OF_PERICENTER":235.7702,"MEAN_ANOMALY":124.2191,"EPHEMERIS_TYPE":0,"CLASSIFICATION_TYPE":"U","NORAD_CAT_ID":63164,"ELEMENT_SET_NO":999,"REV_AT_EPOCH":5920,"BSTAR":0.00025942358,"MEAN_MOTION_DOT":1.8e-6,"MEAN_MOTION_DDOT":0},{"OBJECT_NAME":"COSMOS 970 DEB","OBJECT_ID":"1977-121CG","EPOCH":"2026-03-08T05:55:07.891104","MEAN_MOTION":13.67895286,"ECCENTRICITY":0.01474679,"INCLINATION":65.8327,"RA_OF_ASC_NODE":354.2403,"ARG_OF_PERICENTER":250.3023,"MEAN_ANOMALY":265.9692,"EPHEMERIS_TYPE":0,"CLASSIFICATION_TYPE":"U","NORAD_CAT_ID":64971,"ELEMENT_SET_NO":999,"REV_AT_EPOCH":61365,"BSTAR":0.00023184601,"MEAN_MOTION_DOT":1.33e-6,"MEAN_MOTION_DDOT":0}]
